OBJECT_NAME,OBJECT_ID,EPOCH,MEAN_MOTION,ECCENTRICITY,INCLINATION,RA_OF_ASC_NODE,ARG_OF_PERICENTER,MEAN_ANOMALY,EPHEMERIS_TYPE,CLASSIFICATION_TYPE,NORAD_CAT_ID,ELEMENT_SET_NO,REV_AT_EPOCH,BSTAR,MEAN_MOTION_DOT,MEAN_MOTION_DDOT
CUTE-1 (CO-55),2003-031E,2026-06-19T13:35:11.395968,14.24336935,.00096891,98.6736,179.0951,171.1603,188.9749,0,U,27844,999,19201,.10623568E-3,.202E-5,0
CUBESAT XI-IV (CO-57),2003-031J,2026-06-19T23:27:32.070528,14.23622052,.00092194,98.6765,179.2116,188.6492,171.4529,0,U,27848,999,19177,.9310277E-4,.169E-5,0
CUBESAT XI-V,2005-043F,2026-06-20T09:24:49.638816,14.72638633,.0013858,98.2989,327.0811,190.3179,169.7745,0,U,28895,999,10222,.17435E-3,.1059E-4,0
CUTE-1.7+APD II (CO-65),2008-021C,2026-06-20T10:20:12.804864,15.09477800,.0009448,97.8278,152.9166,28.6866,331.4880,0,U,32785,999,98568,.29901E-3,.4727E-4,0
CANX-2,2008-021H,2026-06-20T09:52:59.939040,15.05639648,.0011364,97.8644,151.2519,41.6924,318.5166,0,U,32790,999,98529,.22966E-3,.3254E-4,0
SEEDS II (CO-66),2008-021J,2026-06-19T22:37:30.143136,15.32829868,.00006922,97.7524,168.9721,347.0777,13.0446,0,U,32791,999,98771,.50131848E-3,.15827E-3,0
SWISSCUBE,2009-051B,2026-06-20T04:17:47.591520,14.62486325,.00061712,98.4033,79.1195,192.6984,167.4062,0,U,35932,999,88959,.15003291E-3,.711E-5,0
BEESAT-1,2009-051C,2026-06-19T17:03:37.003680,14.61723870,.00043714,98.3961,78.2733,207.4388,152.6582,0,U,35933,999,88955,.13076923E-3,.603E-5,0
ITUPSAT1,2009-051E,2026-06-20T06:02:56.835744,14.60444493,.0006403,98.4046,78.0115,222.9093,137.1608,0,U,35935,999,88918,.12172E-3,.541E-5,0
TISAT 1,2010-035E,2026-06-20T09:12:05.793696,15.31812076,.0001859,98.0706,118.2156,164.8533,195.2762,0,U,36799,999,86819,.57958E-3,.17738E-3,0
AEROCUBE 4.5A,2012-048K,2026-06-20T07:00:13.785408,15.99221557,.0019141,64.6225,15.4844,232.0670,127.8765,0,U,38767,999,37315,.10902E-2,.547259E-2,.13718E-3
STRAND-1,2013-009E,2026-06-20T09:32:54.476736,14.37164728,.0007895,98.3923,351.5531,214.6818,145.3855,0,U,39090,999,69752,.78154E-4,.19E-5,0
BRITE-AUSTRIA,2013-009F,2026-06-20T11:33:44.686944,14.36543158,.0009287,98.3997,350.8358,225.5758,134.4669,0,U,39091,999,69752,.53431E-4,.114E-5,0
NEE-01 PEGASO,2013-018B,2026-06-20T08:19:55.742016,14.93674117,.0013386,98.1230,315.6014,148.8934,211.3080,0,U,39151,999,71117,.2549E-3,.2638E-4,0
POPACS 2,2013-055E,2026-06-20T07:55:35.105952,14.91284733,.0416725,80.9912,140.5946,183.6856,176.1273,0,U,39269,999,66368,.21673E-3,.12847E-3,0
POPACS 3,2013-055F,2026-06-20T10:01:24.526272,14.56173217,.0551839,80.9994,225.6848,60.1670,305.3203,0,U,39270,999,63902,.19717E-3,.8387E-4,0
ZACUBE-1 (TSHEPISOSAT),2013-066B,2026-06-20T09:45:44.901216,15.01203183,.0041215,97.8070,133.7603,236.5821,123.1458,0,U,39417,999,68121,.18337E-3,.233E-4,0
WNISAT-1,2013-066H,2026-06-20T10:28:36.067584,14.58067087,.0162147,97.7206,320.3622,221.2923,137.5924,0,U,39423,999,66720,.14157E-3,.73E-5,0
CUBEBUG-2 (LO-74),2013-066AA,2026-06-20T08:17:28.963968,14.93786433,.0058172,97.8908,120.3368,18.8863,341.4496,0,U,39440,999,67746,.38759E-3,.4187E-4,0
NEE-02 KRYSAOR,2013-066AB,2026-06-20T07:19:42.076704,14.86629640,.0067518,97.8892,110.4975,60.2269,300.5640,0,U,39441,999,67666,.23435E-3,.2109E-4,0
FUNCUBE-1 (AO-73),2013-066AE,2026-06-20T10:29:40.114176,15.09520967,.0035961,97.8276,142.9507,189.5491,170.5058,0,U,39444,999,68015,.29523E-3,.4737E-4,0
UWE-3,2013-066AG,2026-06-20T10:10:30.340128,14.97047513,.00472,97.8702,127.5192,310.2944,49.4156,0,U,39446,999,67806,.32554E-3,.3773E-4,0
BRITE-CA1 (TORONTO),2014-033L,2026-06-20T08:48:34.343424,14.72680489,.0077215,97.9744,300.2364,266.6473,92.5899,0,U,40020,999,64268,.91945E-4,.559E-5,0
DUCHIFAT-1,2014-033M,2026-06-20T09:51:28.965024,15.65166086,.0002464,98.0451,231.0257,112.8705,247.2812,0,U,40021,999,65625,.98362E-3,.9796E-3,0
NANOSATC-BR1,2014-033Q,2026-06-20T08:11:54.170016,15.31541409,.0004646,98.0721,204.0092,155.2412,204.9051,0,U,40024,999,65446,.46858E-3,.142E-3,0
QB50P1,2014-033R,2026-06-20T07:31:29.445600,15.18299167,.0008083,98.0964,182.6784,203.9686,156.1171,0,U,40025,999,65350,.34929E-3,.7093E-4,0
QB50P2,2014-033Y,2026-06-19T22:33:22.217472,15.15188064,.00082462,98.0755,167.9914,155.0319,205.1312,0,U,40032,999,65308,.33724334E-3,.6262E-4,0
