CUTE-1 (CO-55)          
1 27844U 03031E   26170.56610412  .00000202  00000+0  10624-3 0  9992
2 27844  98.6736 179.0951 0009689 171.1603 188.9749 14.24336935192018
CUBESAT XI-IV (CO-57)   
1 27848U 03031J   26170.97745452  .00000169  00000+0  93103-4 0  9990
2 27848  98.6765 179.2116 0009219 188.6492 171.4529 14.23622052191779
CUBESAT XI-V            
1 28895U 05043F   26171.39224119  .00001059  00000+0  17435-3 0  9999
2 28895  98.2989 327.0811 0013858 190.3179 169.7745 14.72638633102225
CUTE-1.7+APD II (CO-65) 
1 32785U 08021C   26171.43070376  .00004727  00000+0  29901-3 0  9996
2 32785  97.8278 152.9166 0009448  28.6866 331.4880 15.09477800985683
CANX-2                  
1 32790U 08021H   26171.41180485  .00003254  00000+0  22966-3 0  9991
2 32790  97.8644 151.2519 0011364  41.6924 318.5166 15.05639648985296
SEEDS II (CO-66)        
1 32791U 08021J   26170.94270999  .00015827  00000+0  50132-3 0  9994
2 32791  97.7524 168.9721 0000692 347.0777  13.0446 15.32829868987716
SWISSCUBE               
1 35932U 09051B   26171.17902305  .00000711  00000+0  15003-3 0  9991
2 35932  98.4033  79.1195 0006171 192.6984 167.4062 14.62486325889593
BEESAT-1                
1 35933U 09051C   26170.71084495  .00000603  00000+0  13077-3 0  9991
2 35933  98.3961  78.2733 0004371 207.4388 152.6582 14.61723870889551
ITUPSAT1                
1 35935U 09051E   26171.25204671  .00000541  00000+0  12172-3 0  9999
2 35935  98.4046  78.0115 0006403 222.9093 137.1608 14.60444493889189
TISAT 1                 
1 36799U 10035E   26171.38340039  .00017738  00000+0  57958-3 0  9992
2 36799  98.0706 118.2156 0001859 164.8533 195.2762 15.31812076868191
AEROCUBE 4.5A           
1 38767U 12048K   26171.29182622  .00547259  13718-3  10902-2 0  9994
2 38767  64.6225  15.4844 0019141 232.0670 127.8765 15.99221557373151
STRAND-1                
1 39090U 13009E   26171.39785274  .00000190  00000+0  78154-4 0  9994
2 39090  98.3923 351.5531 0007895 214.6818 145.3855 14.37164728697522
BRITE-AUSTRIA           
1 39091U 13009F   26171.48176721  .00000114  00000+0  53431-4 0  9993
2 39091  98.3997 350.8358 0009287 225.5758 134.4669 14.36543158697523
NEE-01 PEGASO           
1 39151U 13018B   26171.34717294  .00002638  00000+0  25490-3 0  9997
2 39151  98.1230 315.6014 0013386 148.8934 211.3080 14.93674117711177
POPACS 2                
1 39269U 13055E   26171.33026743  .00012847  00000+0  21673-3 0  9991
2 39269  80.9912 140.5946 0416725 183.6856 176.1273 14.91284733663689
POPACS 3                
1 39270U 13055F   26171.41764498  .00008387  00000+0  19717-3 0  9998
2 39270  80.9994 225.6848 0551839  60.1670 305.3203 14.56173217639021
ZACUBE-1 (TSHEPISOSAT)  
1 39417U 13066B   26171.40676969  .00002330  00000+0  18337-3 0  9996
2 39417  97.8070 133.7603 0041215 236.5821 123.1458 15.01203183681216
WNISAT-1                
1 39423U 13066H   26171.43652856  .00000730  00000+0  14157-3 0  9993
2 39423  97.7206 320.3622 0162147 221.2923 137.5924 14.58067087667202
CUBEBUG-2 (LO-74)       
1 39440U 13066AA  26171.34547412  .00004187  00000+0  38759-3 0  9997
2 39440  97.8908 120.3368 0058172  18.8863 341.4496 14.93786433677462
NEE-02 KRYSAOR          
1 39441U 13066AB  26171.30534811  .00002109  00000+0  23435-3 0  9990
2 39441  97.8892 110.4975 0067518  60.2269 300.5640 14.86629640676660
FUNCUBE-1 (AO-73)       
1 39444U 13066AE  26171.43726984  .00004737  00000+0  29523-3 0  9994
2 39444  97.8276 142.9507 0035961 189.5491 170.5058 15.09520967680154
UWE-3                   
1 39446U 13066AG  26171.42396227  .00003773  00000+0  32554-3 0  9995
2 39446  97.8702 127.5192 0047200 310.2944  49.4156 14.97047513678061
BRITE-CA1 (TORONTO)     
1 40020U 14033L   26171.36706416  .00000559  00000+0  91945-4 0  9997
2 40020  97.9744 300.2364 0077215 266.6473  92.5899 14.72680489642689
DUCHIFAT-1              
1 40021U 14033M   26171.41075191  .00097960  00000+0  98362-3 0  9994
2 40021  98.0451 231.0257 0002464 112.8705 247.2812 15.65166086656250
NANOSATC-BR1            
1 40024U 14033Q   26171.34159919  .00014200  00000+0  46858-3 0  9999
2 40024  98.0721 204.0092 0004646 155.2412 204.9051 15.31541409654465
QB50P1                  
1 40025U 14033R   26171.31353525  .00007093  00000+0  34929-3 0  9994
2 40025  98.0964 182.6784 0008083 203.9686 156.1171 15.18299167653508
QB50P2                  
1 40032U 14033Y   26170.93984048  .00006262  00000+0  33724-3 0  9998
2 40032  98.0755 167.9914 0008246 155.0319 205.1312 15.15188064653081
